376P/LONEOS,e,1.1662,312.8495,285.3558,5.755454,0.0713813,0.51374115,145.5274,04/13.0/2025,2000,g 12.5,4.0
# From MPEC 2022-N37
377P/Scotti,e,9.0303,225.9495,354.8753,6.694850,0.0568975,0.25138968,98.9243,04/13.0/2025,2000,g  9.5,4.0
# From MPEC 2025-A40
378P/McNaught,e,19.1595,93.7916,193.3154,6.287307,0.0625183,0.46358979,103.0953,04/13.0/2025,2000,g 12.0,4.0
# From MPC115889
379P/Spacewatch,e,12.4363,30.4520,184.6694,3.483762,0.1515763,0.35021750,312.1396,04/13.0/2025,2000,g 15.0,4.0
# From MPEC 2023-C45
380P/PANSTARRS,e,8.0316,127.7390,87.7464,4.441373,0.1053000,0.33423853,232.2254,04/13.0/2025,2000,g 12.5,4.0
# From MPEC 2021-J28
381P/LINEAR-Spacewatch,e,28.3393,173.3184,173.8501,7.145062,0.0516054,0.68059939,104.5895,04/13.0/2025,2000,g 17.5,2.0
# From MPC182891
382P/Larson,e,8.2663,170.3662,162.3150,5.893427,0.0688894,0.26607891,86.7299,04/13.0/2025,2000,g  8.0,4.0
# From MPEC 2022-OB6
383P/Christensen,e,12.3171,207.8550,133.7266,3.548923,0.1474209,0.59849295,294.3119,04/13.0/2025,2000,g 18.0,4.0
# From MPC182891
384P/Kowalski,e,7.2839,354.1885,37.7063,2.897670,0.1998162,0.61626521,41.1370,04/13.0/2025,2000,g 19.5,4.0
# From MPEC 2021-F20
385P/Hill,e,16.8226,357.0374,44.4597,4.289064,0.1109584,0.40188898,225.7638,04/13.0/2025,2000,g 13.0,4.0
# From MPEC 2021-L04
386P/PANSTARRS,e,15.2465,134.9157,353.1009,4.049154,0.1209644,0.41748125,205.1966,04/13.0/2025,2000,g 14.5,4.0
# From MPEC 2021-J28
387P/Boattini,e,8.9380,259.2386,162.8514,4.797414,0.0937979,0.73700981,191.6353,04/13.0/2025,2000,g 15.0,4.0
# From MPEC 2021-S45
388P/Gibbs,e,23.8794,37.0119,42.3650,5.240747,0.0821513,0.61936963,171.4741,04/13.0/2025,2000,g 13.0,4.0
# From MPEC 2022-OB6
389P/Siding Spring,e,160.0801,218.8544,249.3297,5.630306,0.0737745,0.70566408,142.3584,04/13.0/2025,2000,g 16.0,4.0
# From MPEC 2024-EF7
390P/Gibbs,e,18.5234,152.2044,232.5525,5.817588,0.0702408,0.70672661,129.7729,04/13.0/2025,2000,g 12.0,4.0
# From MPEC 2021-F20
391P/Kowalski,e,21.2570,124.7748,186.9587,4.691279,0.0969990,0.11838916,250.9300,04/13.0/2025,2000,g  8.0,4.0
# From MPEC 2021-J28
392P/LINEAR,e,4.9288,24.8073,71.9577,6.142238,0.0647462,0.68393938,118.8808,04/13.0/2025,2000,g 14.5,4.0
# From MPC182892
393P/Spacewatch-Hill,e,16.7839,36.4010,329.2126,4.800213,0.0937159,0.11915945,186.6230,04/13.0/2025,2000,g 11.0,4.0
# From MPEC 2020-KB7
394P/PANSTARRS,e,8.5282,98.1068,54.4416,4.326685,0.1095144,0.36831653,214.6593,04/13.0/2025,2000,g 16.0,2.4
# From MPC182892
395P/Catalina-NEAT,e,3.5708,220.9768,100.6559,7.202652,0.0509877,0.41169718,58.4978,04/13.0/2025,2000,g 10.0,4.0
# From MPEC 2020-KB7
396P/,e,5.4424,136.6083,8.3062,6.798780,0.0555978,0.41695851,114.1955,04/13.0/2025,2000,g 12.0,4.0
# From MPEC 2022-OB6
397P/Lemmon,e,10.9203,8.2107,14.5872,3.832136,0.1313840,0.40462760,230.9649,04/13.0/2025,2000,g 12.0,4.0
# From MPEC 2021-L04
398P/Boattini,e,11.0272,320.1350,127.5477,3.124527,0.1784546,0.58376218,279.5312,04/13.0/2025,2000,g 15.5,4.0
# From MPEC 2023-XP6
399P/PANSTARRS,e,13.3168,207.1185,214.4451,3.793570,0.1333927,0.44731233,189.4669,04/13.0/2025,2000,g 14.0,4.0
# From MPEC 2024-TD8
400P/PANSTARRS,e,10.9252,176.3503,238.9479,3.561977,0.1466113,0.40961617,223.0694,04/13.0/2025,2000,g 15.5,2.8
# From MPEC 2022-K19
401P/McNaught,e,12.8002,359.9247,309.3595,5.776925,0.0709838,0.57835904,138.9517,04/13.0/2025,2000,g 12.5,4.0
# From MPEC 2024-LE0
402P/LINEAR,e,30.8291,123.0465,326.9800,7.040288,0.0527617,0.44003293,64.0530,04/13.0/2025,2000,g  9.0,4.0
# From MPEC 2021-J28
403P/Catalina,e,12.3319,277.5615,163.9641,5.432462,0.0778411,0.50425470,129.8506,04/13.0/2025,2000,g 12.0,4.0
# From MPEC 2025-GB9
404P/Bressi,e,9.8043,260.0422,169.0398,4.719387,0.0961337,0.12433429,50.8349,04/13.0/2025,2000,g 10.0,4.0
# From MPEC 2021-L04
405P/Lemmon,e,9.3790,112.1932,3.3071,3.603911,0.1440599,0.69017798,226.0864,04/13.0/2025,2000,g 17.5,4.0
# From MPEC 2021-F20
406P/Gibbs,e,1.2099,352.3908,11.5602,3.579343,0.1455456,0.54107650,243.1487,04/13.0/2025,2000,g 17.0,4.0
# From MPEC 2022-YN2
407P/PANSTARRS-Fuls,e,4.8761,80.2423,93.1749,3.492184,0.1510283,0.37592419,289.2156,04/13.0/2025,2000,g 14.0,4.0
# From MPEC 2025-GB9
408P/Novichonok-Gerke,e,19.3522,189.4508,226.6848,4.745606,0.0953381,0.26845665,87.7051,04/13.0/2025,2000,g 11.0,4.0
# From MPEC 2022-ED3
409P/LONEOS-Hill,e,17.1473,143.6406,15.0417,6.032821,0.0665156,0.71020080,102.1285,04/13.0/2025,2000,g 14.0,4.0
# From MPEC 2022-M21
410P/NEAT-LINEAR,e,9.3881,139.9358,313.2623,6.653201,0.0574325,0.51173505,79.7324,04/13.0/2025,2000,g 12.5,4.0
# From MPEC 2021-J28
411P/Christensen,e,12.3895,77.6532,46.5576,5.811597,0.0703495,0.58177027,108.2265,04/13.0/2025,2000,g 13.5,4.0
# From MPEC 2021-F20
412P/WISE,e,8.9300,0.8441,155.8667,3.111257,0.1795975,0.47905242,285.8882,04/13.0/2025,2000,g 17.0,4.0
# From MPEC 2022-OB6
413P/Larson,e,15.9566,39.2321,186.4917,3.735949,0.1364906,0.41793748,186.6461,04/13.0/2025,2000,g 14.0,4.0
# From MPEC 2024-JU4
414P/STEREO,e,23.4074,257.8162,210.7086,2.792110,0.2112542,0.81226254,324.8622,04/13.0/2025,2000,g 19.0,4.0
# From MPEC 2022-J42
415P/Tenagra,e,31.8085,160.2583,345.8782,4.108293,0.1183619,0.19549582,179.7704,04/13.0/2025,2000,g 12.0,4.0
# From MPEC 2021-L04
416P/Scotti,e,3.3633,355.7350,134.4467,4.006546,0.1228991,0.45544215,186.3608,04/13.0/2025,2000,g 15.5,4.0
# From MPEC 2021-W31
417P/NEOWISE,e,9.8293,112.2834,126.3480,3.341052,0.1613910,0.55761154,237.7266,04/13.0/2025,2000,g 16.5,4.0
# From MPEC 2022-TA0
418P/LINEAR,e,5.7807,277.6233,307.3374,5.090494,0.0858152,0.66382094,109.3820,04/13.0/2025,2000,g 13.0,4.0
# From MPEC 2023-UR6
419P/PANSTARRS,e,2.7960,40.4153,187.8672,3.533112,0.1484117,0.27395612,187.9714,04/13.0/2025,2000,g 12.5,4.0
# From MPEC 2024-L77
420P/Hill,e,14.4959,173.5797,156.4157,5.483929,0.0767479,0.49512764,81.3939,04/13.0/2025,2000,g 11.5,4.0
# From MPEC 2021-W31
421P/McNaught,e,10.0759,55.3332,259.8652,5.075132,0.0862051,0.67438347,132.7732,04/13.0/2025,2000,g 14.0,4.0
# From MPEC 2024-N80
422P/Christensen,e,39.5807,36.0151,304.7692,6.275039,0.0627017,0.50576655,74.4948,04/13.0/2025,2000,g 11.0,4.0
# From MPEC 2023-FK0
423P/Lemmon,e,8.3430,33.3020,80.8745,6.181558,0.0641294,0.12277857,83.0468,04/13.0/2025,2000,g  8.0,4.0
# From MPEC 2022-CN4
424P/LaSagra,e,8.6818,51.2085,312.5595,4.420897,0.1060324,0.69043427,133.6024,04/13.0/2025,2000,g 17.0,4.0
# From MPEC 2024-C04
425P/Kowalski,e,16.4149,210.0853,200.9836,6.351206,0.0615772,0.54377373,80.0494,04/13.0/2025,2000,g 12.0,4.0
# From MPEC 2024-N80
426P/PANSTARRS,e,17.7841,280.3969,118.4056,3.185939,0.1733197,0.16106339,100.6274,04/13.0/2025,2000,g 13.5,4.0
# From MPEC 2023-J29
428P/Gibbs,e,8.5030,299.3123,36.8993,3.488378,0.1512756,0.51823535,216.4418,04/13.0/2025,2000,g 15.0,4.0
# From MPEC 2024-EF7
429P/LINEAR-Hill,e,7.5144,322.0180,75.7303,3.555709,0.1469991,0.49091024,175.9272,04/13.0/2025,2000,g 15.5,4.0
# From MPEC 2022-L66
430P/Scotti,e,4.4755,54.6499,94.4462,3.103332,0.1802859,0.50023538,221.2684,04/13.0/2025,2000,g 16.5,4.0
# From MPEC 2025-A40
431P/Scotti,e,22.3816,202.8396,199.9989,3.476900,0.1520253,0.47740024,175.5069,04/13.0/2025,2000,g 14.0,4.0
# From MPEC 2021-U31
432P/PANSTARRS,e,10.0680,239.1302,105.2817,3.038206,0.1861136,0.24087228,246.2037,04/13.0/2025,2000,g 17.0,4.0
# From MPEC 2024-D33
434P/Tenagra,e,6.3362,288.9149,128.4349,4.135708,0.1171870,0.27437837,148.1096,04/13.0/2025,2000,g 13.0,4.0
# From MPEC 2021-W31
435P/PANSTARRS,e,18.8744,98.5247,244.2169,3.021514,0.1876581,0.31758978,254.6015,04/13.0/2025,2000,g 17.0,4.0
# From MPEC 2022-X67
436P/Garradd,e,20.1993,87.1564,282.7601,5.936752,0.0681366,0.66913098,83.2693,04/13.0/2025,2000,g 14.5,4.0
# From MPEC 2023-B57
437P/Lemmon-PANSTARRS,e,3.6890,245.8403,207.0439,4.568599,0.1009321,0.25507947,97.5830,04/13.0/2025,2000,g 13.0,4.0
# From MPEC 2025-A40
438P/Christensen,e,8.2807,260.1089,58.9944,3.852425,0.1303475,0.41415705,239.4054,04/13.0/2025,2000,g 14.5,4.0
# From MPEC 2022-C56
439P/LINEAR,e,7.1123,56.4374,342.1054,3.491734,0.1510575,0.46915293,200.2418,04/13.0/2025,2000,g 13.5,4.0
# From MPEC 2024-N80
440P/Kobayashi,e,12.3496,328.8090,183.2972,8.578661,0.0392261,0.76081899,43.5284,04/13.0/2025,2000,g 15.5,4.0
# From MPEC 2022-X67
441P/PANSTARRS,e,2.5747,143.5917,178.8659,4.132399,0.1173277,0.19469147,342.4747,04/13.0/2025,2000,g 13.5,4.0
# From MPEC 2024-N80
442P/McNaught,e,6.0573,31.9630,310.6553,4.956101,0.0893293,0.53254175,86.5796,04/13.0/2025,2000,g 13.5,4.0
# From MPEC 2024-TD8
443P/PANSTARRS-Christensen,e,19.8878,108.9352,145.0800,4.124658,0.1176582,0.28300673,107.8267,04/13.0/2025,2000,g 13.5,4.0
# From MPEC 2023-VM5
444P/WISE-PANSTARRS,e,22.7339,88.1806,172.8642,3.469626,0.1525036,0.55923297,154.8891,04/13.0/2025,2000,g 17.0,4.0
# From MPEC 2024-BE0
445P/Lemmon-PANSTARRS,e,1.0887,126.5899,213.2362,4.046826,0.1210688,0.41406659,117.5236,04/13.0/2025,2000,g 15.0,4.0
# From MPEC 2024-NE4
446P/McNaught,e,16.6244,336.3482,344.6324,4.560856,0.1011893,0.64671193,106.2674,04/13.0/2025,2000,g 16.5,4.0
# From MPEC 2022-YB4
447P/Sheppard-Tholen,e,7.4407,302.6364,97.5692,5.626974,0.0738400,0.17740748,71.6300,04/13.0/2025,2000,g 12.0,4.0
# From MPEC 2024-PC5
448P/PANSTARRS,e,12.1456,161.7553,218.7990,3.636233,0.1421433,0.41822768,135.0032,04/13.0/2025,2000,g 16.0,4.0
# From MPEC 2024-DC6
449P/Leonard,e,15.4707,242.5227,176.7619,3.599871,0.1443024,0.47979580,230.8401,04/13.0/2025,2000,g 16.0,4.0
# From MPEC 2025-GB9
450P/LONEOS,e,10.6410,124.3861,22.9774,7.948658,0.0439808,0.31416660,331.1874,04/13.0/2025,2000,g  6.5,4.0
# From MPEC 2023-HD1
451P/Christensen,e,26.4840,300.8705,186.7826,6.349348,0.0616042,0.55920425,53.4160,04/13.0/2025,2000,g 15.5,4.0
# From MPEC 2024-NE4
452P/Sheppard-Jewitt,e,6.4218,123.6673,37.0872,7.309998,0.0498687,0.42848458,35.8107,04/13.0/2025,2000,g  9.0,4.0
# From MPEC 2023-RF3
453P/WISE-Lemmon,e,27.0614,42.8937,70.8911,5.466889,0.0771070,0.58312876,59.5011,04/13.0/2025,2000,g 14.0,4.0
# From MPEC 2023-CD7
